[{"OBJECT_NAME":"STARLINK-35102","OBJECT_ID":"2025-221S","EPOCH":"2026-03-09T08:58:49.437984","MEAN_MOTION":15.30198355,"ECCENTRICITY":0.00015194,"INCLINATION":53.1603,"RA_OF_ASC_NODE":89.9119,"ARG_OF_PERICENTER":83.6627,"MEAN_ANOMALY":276.4546,"EPHEMERIS_TYPE":0,"CLASSIFICATION_TYPE":"U","NORAD_CAT_ID":65839,"ELEMENT_SET_NO":999,"REV_AT_EPOCH":2468,"BSTAR":0.00080424396,"MEAN_MOTION_DOT":0.00023535,"MEAN_MOTION_DDOT":0},{"OBJECT_NAME":"COSMOS 2251 DEB","OBJECT_ID":"1993-036BTX","EPOCH":"2026-02-28T17:34:44.973408","MEAN_MOTION":15.25753352,"ECCENTRICITY":0.00216382,"INCLINATION":73.9681,"RA_OF_ASC_NODE":229.3494,"ARG_OF_PERICENTER":13.6287,"MEAN_ANOMALY":346.5492,"EPHEMERIS_TYPE":0,"CLASSIFICATION_TYPE":"U","NORAD_CAT_ID":38487,"ELEMENT_SET_NO":999,"REV_AT_EPOCH":67986,"BSTAR":0.0024802785,"MEAN_MOTION_DOT":0.00064261,"MEAN_MOTION_DDOT":0}]
